[{"OBJECT_NAME":"NUSAT-44 (MARIA MITCHELL)","OBJECT_ID":"2024-043AA","EPOCH":"2026-03-09T22:12:18.524160","MEAN_MOTION":15.29764305,"ECCENTRICITY":0.0007331,"INCLINATION":97.5299,"RA_OF_ASC_NODE":207.7691,"ARG_OF_PERICENTER":214.9017,"MEAN_ANOMALY":145.1743,"EPHEMERIS_TYPE":0,"CLASSIFICATION_TYPE":"U","NORAD_CAT_ID":59122,"ELEMENT_SET_NO":999,"REV_AT_EPOCH":11209,"BSTAR":0.00061063193,"MEAN_MOTION_DOT":0.00017562,"MEAN_MOTION_DDOT":0},{"OBJECT_NAME":"STARLINK-35597","OBJECT_ID":"2025-263J","EPOCH":"2026-03-09T03:40:25.375872","MEAN_MOTION":15.27605625,"ECCENTRICITY":0.00013106,"INCLINATION":43.0012,"RA_OF_ASC_NODE":354.0031,"ARG_OF_PERICENTER":261.5589,"MEAN_ANOMALY":98.5114,"EPHEMERIS_TYPE":0,"CLASSIFICATION_TYPE":"U","NORAD_CAT_ID":66493,"ELEMENT_SET_NO":999,"REV_AT_EPOCH":1881,"BSTAR":0.0015118781,"MEAN_MOTION_DOT":0.00041609,"MEAN_MOTION_DDOT":0}]
